#dP2024 10 14  6  0  0.00000000      96 __u+U IGS20 EXT  IAC
## 2336 108000.00000000   900.00000000 60597 0.2500000000000
+   53   G02G03G04G05G06G07G08G09G10G11G12G13G14G15G16G17G18
+        G19G20G21G22G23G24G25G26G27G28G29G30G31G32R01R02R03
+        R04R05R07R08R09R11R12R14R15R16R17R18R19R20R21R22R24
+        R25R26  0  0  0  0  0  0  0  0  0  0  0  0  0  0  0
+          0  0  0  0  0  0  0  0  0  0  0  0  0  0  0  0  0
++         8  8  7  7  7  7  9  7  8  8  7  8  7  8  7  9  8
++         8  7  8  8  7  8  7  7  8  7  6  8  8  7 10  8  7
++         9  8  8  8  8  8  8  8  8  8  8  8  7  9  9  7  8
++         9  9  0  0  0  0  0  0  0  0  0  0  0  0  0  0  0
++         0  0  0  0  0  0  0  0  0  0  0  0  0  0  0  0  0
%c M  cc GPS ccc cccc cccc cccc cccc ccccc ccccc ccccc ccccc
%c cc cc ccc ccc cccc cccc cccc cccc ccccc ccccc ccccc ccccc
%f  0.0000000  0.000000000  0.00000000000  0.000000000000000
%f  0.0000000  0.000000000  0.00000000000  0.000000000000000
%i    0    0    0    0      0      0      0      0         0
%i    0    0    0    0      0      0      0      0         0
/* IAC                                ULTRA-RAPID PREDICTION
/* S/V CLOCKS ARE ALIGNED TO GNSS TIME                      
/* G:C1WC2W R:C1PC2P E:C1XC5X C:C2IC6I J:C1CC2S             
/* PCV:IGS20_2317 OL/AL:FES2004  NONE     YN ORB:CoN CLK:CoN
*  2024 10 14 19  0  0.00000000
PG02 -22491.666446 -12803.561917   7192.063384   -337.093340
PG03 -13918.055836  -4336.648427  22035.811583    570.177423
PG04 -24575.027588  -1754.210967  10127.492467    461.675676
PG05   6985.932033  19771.880264 -16442.994575   -189.789627
PG06  -1956.156560  17195.763051  20184.212783    -38.547049
PG07 -18398.012556    396.111508 -18782.259522    -27.711171
PG08 -17071.088697  -8808.166827 -18638.007364    384.269687
PG09 -25667.863861   6931.624349    530.390071    398.701883
PG10  10316.988823 -23629.054273  -5360.619081   -158.547514
PG11  10775.991773  22249.660484   9827.632708   -743.890911
PG12  12473.818647   9239.875539  21273.822908   -545.125770
PG13   8434.189803  13747.728939 -21375.875072    681.444106
PG14 -13077.522828  21195.390538  -8850.333157    517.537033
PG15  18107.786789   7122.007071 -18668.876787    215.734949
PG16  -1808.882178 -22623.070341 -13759.547071   -154.914540
PG17 -17879.164087  13743.178285  14593.784493    595.445591
PG18  17205.737286  -1745.221243 -20198.585952   -657.943132
PG19  -8856.689525  15094.975836  19700.352133    550.487814
PG20   1798.594462  25898.745449  -5897.015381    369.671855
PG21 -21317.994599 -16783.904091   1374.204850     99.763971
PG22  -9605.591322  24931.835206   -266.107712    -71.027027
PG23  15027.721875 -13860.808370 -16796.592305    341.629267
PG24  22002.628573  14639.157286   3872.124130   -484.760738
PG25  16139.619012  -5259.763259  20019.035981    499.517011
PG26   3726.690655 -26048.644757  -1569.289871     55.744294
PG27  -5755.562283 -14348.643521 -21910.271274    -34.553258
PG28   3722.013097 -16328.385827  20601.260673   -445.828611
PG29  26345.347457  -3192.914564   2167.199471   -571.250355
PG30 -11227.172556  10946.779454 -21284.875406   -302.404619
PG31  -6781.724242 -21383.983973  13682.570660   -223.387700
PG32  15260.049125 -15295.753322  15526.775231   -586.723768
PR01 -16596.326900  17446.661946  -8414.535713    101.038510
PR02  -3392.538725  14158.655283 -20926.669523    -25.168143
PR03  12785.745355   3435.819327 -21748.664049    109.400177
PR04  21400.198487  -8740.086962 -10737.059278    259.272904
PR05  18725.154258 -16213.269275   6034.940007    139.148643
PR07 -13269.133948  -3031.296091  21620.079315     92.922290
PR08 -21431.462881   9021.526941  10590.091896     -6.406074
PR09  -3636.163811 -25277.934216   -864.117913    214.704996
PR11 -11015.805267   -505.789025 -22991.043590      9.290253
PR12  -5733.881363  19186.983140 -15783.693250     46.023882
PR14   9868.985501  16682.348143  16583.079343     27.082282
PR15  10974.308058  -1424.220064  23001.886429     74.887675
PR16   5661.865330 -19064.203478  16006.076006     29.947805
PR17  21839.207897  12485.386222   4395.127379    130.758860
PR18  22065.635200   4751.115472 -11823.178758    166.877021
PR19  13005.769935  -4074.185820 -21558.959295   -294.857381
PR20  -7882.708940 -14125.237428 -19719.822994   -120.470140
PR21 -21353.129482 -12900.295274  -5221.827972   -142.771283
PR22 -21648.682270  -4279.560198  12828.991533     20.828154
PR24   8835.103934  14204.505611  19290.184463    -76.005557
PR25 -21457.444635 -13186.186519  -3946.588497    -91.923859
PR26 -21002.641096   8082.265137  12009.492129     83.140388
*  2024 10 14 19 15  0.00000000
PG02 -22838.919156 -13336.812702   4445.364683   -337.085934
PG03 -13295.888809  -6796.946141  21808.403463    570.188181
PG04 -23372.444215  -2264.053210  12567.573953    461.681790
PG05   6505.469671  21445.731813 -14385.557838   -189.790808
PG06  -3675.143810  15590.518712  21234.039881    -38.571903
PG07 -19855.134619  -1191.191208 -17286.847529    -27.708108
PG08 -15042.268431  -9597.361881 -19919.760130    384.280121
PG09 -25523.908145   6617.966062   3367.928247    398.716735
PG10  10321.454706 -22800.094381  -8145.099163   -158.559523
PG11   9761.388014  21478.336920  12296.002369   -743.893585
PG12  11673.266146  11560.521447  20595.691042   -545.128192
PG13   6041.444881  14122.302480 -21919.989164    681.445691
PG14 -13048.282634  19991.019961 -11352.587330    517.544598
PG15  16252.610611   8142.799260 -19937.311983    215.738906
PG16  -1143.446223 -23883.367526 -11406.043910   -154.905548
PG17 -19350.960345  13908.295064  12333.977013    595.433949
PG18  18728.722886   -111.634092 -18897.958165   -657.944340
PG19 -11060.599017  15355.663915  18309.643940    550.491990
PG20   1514.865286  26405.345181  -3121.926372    369.671517
PG21 -21175.489152 -16890.462602  -1420.130784     99.763246
PG22  -9752.135343  24634.255413  -3095.080907    -71.030068
PG23  14728.921105 -11848.342541 -18529.459557    341.636630
PG24  22079.733715  15079.219685   1112.242189   -484.759680
PG25  15710.645055  -2878.836541  20837.605648    499.516928
PG26   4093.620857 -25993.086527   1247.111912     55.735859
PG27  -3411.881061 -15041.419262 -21898.360783    -34.553467
PG28   5555.529685 -14774.205413  21347.875720   -445.840222
PG29  25987.684693  -2891.991466   4993.126215   -571.247978
PG30 -13004.917274   9238.794799 -21107.333054   -302.397937
PG31  -5391.001121 -20317.609267  15767.837699   -223.387174
PG32  16873.360904 -15583.611728  13375.511677   -586.719783
PR01 -17169.418296  18088.434903  -5348.903777    101.039653
PR02  -5346.038800  15710.595040 -19361.581289    -25.168320
PR03  10568.691640   5061.682558 -22608.448973    109.400592
PR04  20103.621633  -7970.308496 -13486.152306    259.274478
PR05  19063.687705 -16680.467339   2865.438035    139.149149
PR07 -11069.696059  -4627.310106  22551.845083     92.922931
PR08 -20172.879259   8253.662314  13341.087476     -6.406016
PR09  -3719.403671 -25176.758850   2314.120368    214.707059
PR11 -11415.617360  -3290.693716 -22563.807386      9.289371
PR12  -5913.706677  17107.058485 -17954.776865     46.024267
PR14  10217.306238  18550.226315  14215.667041     27.082346
PR15  11344.808958   1373.291816  22823.783874     74.887323
PR16   5836.413621 -16963.463123  18160.676811     29.948099
PR17  21239.363381  12025.741967   7514.096231    130.761888
PR18  23313.500760   5110.883827  -8925.862097    166.878675
PR19  15368.280497  -3039.611015 -20129.078238   -294.858605
PR20  -5648.889918 -12924.063769 -21247.150147   -120.470715
PR21 -20662.341252 -12389.520235  -8319.101992   -142.774212
PR22 -22975.064811  -4764.453303  10042.375424     20.818350
PR24   6592.781883  13161.625534  20862.111962    -76.006923
PR25 -20901.914070 -12767.810539  -7065.956211    -91.920403
PR26 -19615.284899   7191.847876  14638.578604     83.167375
EOF
